[{"OBJECT_NAME":"STARLINK-4125","OBJECT_ID":"2022-086C","EPOCH":"2026-03-09T15:14:33.930816","MEAN_MOTION":15.08842186,"ECCENTRICITY":0.0001104,"INCLINATION":53.2174,"RA_OF_ASC_NODE":204.4453,"ARG_OF_PERICENTER":81.4624,"MEAN_ANOMALY":278.6494,"EPHEMERIS_TYPE":0,"CLASSIFICATION_TYPE":"U","NORAD_CAT_ID":53244,"ELEMENT_SET_NO":999,"REV_AT_EPOCH":20123,"BSTAR":2.4809e-6,"MEAN_MOTION_DOT":-2.48e-6,"MEAN_MOTION_DDOT":0},{"OBJECT_NAME":"KUIPER-00148","OBJECT_ID":"2025-217H","EPOCH":"2026-03-09T06:36:19.446048","MEAN_MOTION":15.09536529,"ECCENTRICITY":0.00081087,"INCLINATION":51.8794,"RA_OF_ASC_NODE":26.5769,"ARG_OF_PERICENTER":351.8096,"MEAN_ANOMALY":8.2745,"EPHEMERIS_TYPE":0,"CLASSIFICATION_TYPE":"U","NORAD_CAT_ID":65769,"ELEMENT_SET_NO":999,"REV_AT_EPOCH":2507,"BSTAR":0.00098730243,"MEAN_MOTION_DOT":0.00015783,"MEAN_MOTION_DDOT":0}]
