STARLINK-4125           
1 53244U 22086C   26068.63511494 -.00000248  00000+0  24809-5 0  9993
2 53244  53.2174 204.4453 0001104  81.4624 278.6494 15.08842186201236
KUIPER-00148            
1 65769U 25217H   26068.27522507  .00015783  00000+0  98730-3 0  9995
2 65769  51.8794  26.5769 0008108 351.8096   8.2745 15.09536529 25078
